#aV2006 12 30  0  0   .00000000      96 DD+AD WGS84 FIT  NGA
## 1407 518400.00000000   900.00000000 54099  .0000000000000
+   30     1  2  3  4  5  6  7  8  9 10 11 12 13 14 16 17 18
+         19 20 21 22 23 24 25 26 27 28 29 30 31  0  0  0  0
+          0  0  0  0  0  0  0  0  0  0  0  0  0  0  0  0  0
+          0  0  0  0  0  0  0  0  0  0  0  0  0  0  0  0  0
+          0  0  0  0  0  0  0  0  0  0  0  0  0  0  0  0  0
++         0  0  0  0  0  0  0  0  0  0  0  0  0  0  0  0  0
++         0  0  0  0  0  0  0  0  0  0  0  0  0  0  0  0  0
++         0  0  0  0  0  0  0  0  0  0  0  0  0  0  0  0  0
++         0  0  0  0  0  0  0  0  0  0  0  0  0  0  0  0  0
++         0  0  0  0  0  0  0  0  0  0  0  0  0  0  0  0  0
%c cc cc ccc ccc cccc cccc cccc cccc ccccc ccccc ccccc ccccc
%c cc cc ccc ccc cccc cccc cccc cccc ccccc ccccc ccccc ccccc
%f  0.0000000  0.000000000  0.00000000000  0.000000000000000
%f  0.0000000  0.000000000  0.00000000000  0.000000000000000
%i    0    0    0    0      0      0      0      0         0
%i    0    0    0    0      0      0      0      0         0
/*      NGA, ST. LOUIS,MO.                                  
/*   EPHEMERIS COMPUTED FROM  3 DAYS OF DATA                
/* CCCCCCCCCCCCCCCCCCCCCCCCCCCCCCCCCCCCCCCCCCCCCCCCCCCCCCCCC
/* CCCCCCCCCCCCCCCCCCCCCCCCCCCCCCCCCCCCCCCCCCCCCCCCCCCCCCCCC
*  2006 12 30  4  0   .00000000                                                 
P  1 -21745.996228 -15040.932296  -2654.610676     98.330919                    
V  1  -1672.620373  -3703.995157  32098.056061       .023639                    
P  2  13824.201102  10188.568526 -20557.554951     68.598682                    
V  2  -3398.076050  25345.953132  10152.005658       .034953                    
P  3 -24254.295791 -10114.722229   4717.565347    505.242008                    
V  3  -3547.755652  -6228.519668 -29978.121024       .913914                    
P  4   6841.988618  21941.664770 -13047.214980    350.499497                    
V  4  -4760.844059  16199.448138  25214.393915       .030474                    
P  5  22441.876069 -13963.185664  -1831.498483    451.859127                    
V  5   3562.715702   2157.808673  31247.200235       .174974                    
P  6   6268.775002 -14609.809395 -21086.852794    484.362880                    
V  6  22939.301501  14850.304891  -3492.653168      -.204113                    
P  7    -74.576447 -17316.258863 -19747.152138    460.692174                    
V  7  22714.604448  12734.317692 -11124.460576      -.101476                    
P  8   -992.475710  25954.380667   4169.060967    -91.472906                    
V  8  -3439.222377   5057.228300 -31794.960448      -.013976                    
P  9  14099.966971 -10413.857490  19305.676602     50.942633                    
V  9   -226.982700  25877.250662  13952.659748       .015567                    
P 10  22693.201619    942.323941 -14132.405326     95.120913                    
V 10 -15605.866087   8359.031311 -24364.153855       .006713                    
P 11 -13839.549170  13263.812509  18184.683056      1.571097                    
V 11  -3817.521516 -23468.543609  14425.516472       .015375                    
P 12  23678.012183 -11877.647876  -1533.221534    -74.148594                    
V 12   3063.541260   1740.376763  31702.766865       .082460                    
P 13  -3669.001747  15020.475481 -21691.069647    127.497580                    
V 13 -21791.900862 -16340.851692  -7618.773016       .039246                    
P 14 -13004.523234 -19793.346976  12179.824839      3.132429                    
V 14  13157.533096   7897.087655  26999.834487       .011574                    
P 16 -19329.054950  -4906.756550 -17523.367405    107.060559                    
V 16  19881.152375 -10348.756861 -18822.680519       .039320                    
P 17  13125.813622  19874.833780  11869.956362     84.395581                    
V 17 -13518.261074  -6992.742310  26528.028511      -.014559                    
P 18   9738.593769 -17296.041760  17624.018831   -253.757127                    
V 18  21379.661452  -6474.757962 -18620.028479      -.001570                    
P 19 -21618.240524  -4090.502014  15038.455263     50.578606                    
V 19 -13297.563836 -13585.580082 -22865.195511       .044116                    
P 20 -22276.311797  13748.863691  -4451.289925    -21.883439                    
V 20  -6285.754153   -372.423548  30974.245358      -.000627                    
P 21   4944.315873 -25708.668596  -1907.847320     66.767244                    
V 21   3530.476046   3090.793161 -31548.037382       .012626                    
P 22  -3625.003340 -15130.559789  21686.311207    158.933276                    
V 22  25418.973416  -9642.583245  -2515.489767       .024620                    
P 23 -14642.151937   7237.337863 -21061.881864    144.262866                    
V 23 -21106.459654 -16022.699840   9013.533639       .012012                    
P 24  15308.678835    174.488667 -21544.659818     64.255406                    
V 24  -4156.393642  27466.658376  -2410.389482       .032341                    
P 25 -11393.502195 -17042.100451 -16394.494983    395.321294                    
V 25   2301.990752 -21638.928822  20555.342291      -.077754                    
P 26  22080.040827   5776.892373  13646.042683    -70.289417                    
V 26  13326.110030  11789.064263 -25224.288466      -.173091                    
P 27  -4602.108696  25368.061646  -5087.111291     85.838489                    
V 27  -2734.161351  -7434.334225 -31076.394870       .020094                    
P 28   -347.127166  16258.080460  21244.656000     10.782843                    
V 28 -24580.595749   9488.860227  -8125.669304      -.008621                    
P 29  23256.808192   8072.394653  10622.298091    289.018885                    
V 29   9740.776902   8724.798615 -28250.032890       .196230                    
P 30  15551.093958 -17693.490442 -12463.682816     21.020126                    
V 30  15031.332253  -4396.416193  25731.740315       .011372                    
P 31  -8678.031668 -19843.431210 -15145.754977    -12.415647                    
V 31   4030.073691 -19300.619586  22728.592949       .064655                    
EOF
